{"fetched_at":"2026-07-22T07:09:31.079Z","source":"https://celestrak.org/NORAD/elements/gp.php?GROUP=stations&FORMAT=JSON","constellation":"iss","records":[{"OBJECT_NAME":"ISS (ZARYA)","OBJECT_ID":"1998-067A","EPOCH":"2026-07-21T04:27:10.178208","CLASSIFICATION_TYPE":"U","MEAN_MOTION":15.49071756,"ECCENTRICITY":0.00068493,"INCLINATION":51.6316,"RA_OF_ASC_NODE":131.8443,"ARG_OF_PERICENTER":320.6461,"MEAN_ANOMALY":39.4029,"EPHEMERIS_TYPE":0,"NORAD_CAT_ID":25544,"ELEMENT_SET_NO":999,"REV_AT_EPOCH":57702,"BSTAR":0.00011479289,"MEAN_MOTION_DOT":0.00005896,"MEAN_MOTION_DDOT":0}]}
